[{"OBJECT_NAME":"STARLINK-1559","OBJECT_ID":"2020-055BC","EPOCH":"2026-03-09T05:36:23.522976","MEAN_MOTION":15.29461733,"ECCENTRICITY":0.0004229,"INCLINATION":53.0254,"RA_OF_ASC_NODE":76.0659,"ARG_OF_PERICENTER":33.971,"MEAN_ANOMALY":326.1559,"EPHEMERIS_TYPE":0,"CLASSIFICATION_TYPE":"U","NORAD_CAT_ID":46077,"ELEMENT_SET_NO":999,"REV_AT_EPOCH":30951,"BSTAR":0.0014778793,"MEAN_MOTION_DOT":0.00042685,"MEAN_MOTION_DDOT":0},{"OBJECT_NAME":"STARLINK-36150","OBJECT_ID":"2025-294B","EPOCH":"2026-03-09T22:43:51.334752","MEAN_MOTION":15.27592931,"ECCENTRICITY":0.00015739,"INCLINATION":42.9987,"RA_OF_ASC_NODE":36.1864,"ARG_OF_PERICENTER":48.7834,"MEAN_ANOMALY":311.3153,"EPHEMERIS_TYPE":0,"CLASSIFICATION_TYPE":"U","NORAD_CAT_ID":67031,"ELEMENT_SET_NO":999,"REV_AT_EPOCH":1484,"BSTAR":0.00089319049,"MEAN_MOTION_DOT":0.00024408,"MEAN_MOTION_DDOT":0}]
